[{"OBJECT_NAME":"STARLINK-34878","OBJECT_ID":"2025-189M","EPOCH":"2026-03-09T15:42:54.021888","MEAN_MOTION":15.30192129,"ECCENTRICITY":0.00010722,"INCLINATION":53.1597,"RA_OF_ASC_NODE":206.7521,"ARG_OF_PERICENTER":50.6921,"MEAN_ANOMALY":309.4175,"EPHEMERIS_TYPE":0,"CLASSIFICATION_TYPE":"U","NORAD_CAT_ID":65334,"ELEMENT_SET_NO":999,"REV_AT_EPOCH":3110,"BSTAR":0.00066262464,"MEAN_MOTION_DOT":0.00019312,"MEAN_MOTION_DDOT":0},{"OBJECT_NAME":"CSSWE","OBJECT_ID":"2012-048D","EPOCH":"2026-03-09T08:13:05.901888","MEAN_MOTION":15.39093253,"ECCENTRICITY":0.00676686,"INCLINATION":64.6623,"RA_OF_ASC_NODE":70.3925,"ARG_OF_PERICENTER":202.9126,"MEAN_ANOMALY":156.8988,"EPHEMERIS_TYPE":0,"CLASSIFICATION_TYPE":"U","NORAD_CAT_ID":38761,"ELEMENT_SET_NO":999,"REV_AT_EPOCH":10100,"BSTAR":0.00070329542,"MEAN_MOTION_DOT":0.0002953,"MEAN_MOTION_DDOT":0}]
